COSMOS 2433 (720)       
1 32275U 07052A   22307.61510150 -.00000068  00000+0  00000+0 0  9999
2 32275  66.0719   0.0544 0004472 232.3521 228.6916  2.13104233116931
COSMOS 2432 (719)       
1 32276U 07052B   22307.62286990 -.00000068  00000+0  00000+0 0  9993
2 32276  66.0863   0.1565 0009267 316.2064  98.7163  2.13103442116938
COSMOS 2434 (721)       
1 32393U 07065A   22307.51512321 -.00000034  00000+0  00000+0 0  9998
2 32393  64.3652 236.6808 0001396  74.6957 199.6870  2.13103171115633
COSMOS 2436 (723)       
1 32395U 07065C   22307.62047638 -.00000035  00000+0  00000+0 0  9997
2 32395  64.3750 236.7355 0015811 355.5411 135.4368  2.13102912115570
COSMOS 2456 (730)       
1 36111U 09070A   22307.23561784  .00000093  00000+0  00000+0 0  9998
2 36111  64.3895 116.2876 0001438 342.1091 241.5021  2.13099265100290
COSMOS 2457 (733)       
1 36112U 09070B   22307.74566718  .00000091  00000+0  00000+0 0  9995
2 36112  64.3731 116.1433 0006689 148.2249 235.0659  2.13101471100312
COSMOS 2461 (735)       
1 36401U 10007B   22307.81487545 -.00000067  00000+0  00000+0 0  9990
2 36401  65.9553 358.8660 0018329   3.1296 108.3968  2.13103749 98663
COSMOS 2460 (732)       
1 36402U 10007C   22307.73382891 -.00000066  00000+0  00000+0 0  9999
2 36402  65.9428 358.8167 0001841 213.7094 145.4242  2.13106469 98651
COSMOS 2464 (736)       
1 37139U 10041C   22308.05167762 -.00000037  00000+0  00000+0 0  9997
2 37139  63.9649 235.6687 0029495   8.2192 175.0033  2.13100913 94721
COSMOS 2476 (744)       
1 37867U 11064A   22308.26476838  .00000091  00000+0  00000+0 0  9990
2 37867  64.6766 117.6627 0020532 230.3335 329.4768  2.13101845 85668
COSMOS 2477 (745)       
1 37868U 11064B   22307.80973576  .00000094  00000+0  00000+0 0  9994
2 37868  64.6842 117.7446 0017855 230.2252 158.5497  2.13101705 85615
COSMOS 2475 (743)       
1 37869U 11064C   22307.80900065  .00000094  00000+0  00000+0 0  9998
2 37869  64.6916 117.7547 0021406 250.5485  95.8425  2.13102024 85619
COSMOS 2485 (747)       
1 39155U 13019A   22307.51211774  .00000096  00000+0  00000+0 0  9992
2 39155  64.8390 118.1467 0021108 226.1682 160.6451  2.13101983 74127
COSMOS 2492 (754)       
1 39620U 14012A   22307.84392095 -.00000066  00000+0  00000+0 0  9993
2 39620  65.8278 358.4750 0012286 314.0327   1.6662  2.13103260 67078
COSMOS 2500 (755)       
1 40001U 14032A   22308.10482677 -.00000066  00000+0  00000+0 0  9996
2 40001  65.7675 358.3167 0008310 205.4229 168.6960  2.13102415 65301
COSMOS 2501 (702K)      
1 40315U 14075A   22307.61489653 -.00000035  00000+0  00000+0 0  9993
2 40315  63.6714 236.2994 0018617 211.1117 315.8334  2.13101385 61697
COSMOS 2514 (751)       
1 41330U 16008A   22307.37718522 -.00000066  00000+0  00000+0 0  9996
2 41330  65.5657 357.9983 0012201 216.3410 143.6389  2.13102600 52459
COSMOS 2516 (753)       
1 41554U 16032A   22307.03091466 -.00000030  00000+0  00000+0 0  9996
2 41554  63.8972 236.6361 0014386 215.2532 144.6567  2.13106260 50059
COSMOS 2522 (752)       
1 42939U 17055A   22307.76372287 -.00000036  00000+0  00000+0 0  9999
2 42939  64.1307 237.0454 0008531 245.7002 170.9120  2.13102141 39829
COSMOS 2527 (756)       
1 43508U 18053A   22307.90949912  .00000095  00000+0  00000+0 0  9996
2 43508  65.0010 118.1621 0007350 212.2052 348.2868  2.13102548 34117
COSMOS 2529 (757)       
1 43687U 18086A   22307.35290524 -.00000033  00000+0  00000+0 0  9990
2 43687  64.3461 237.4123 0010776 266.6977 150.2624  2.13102224 31124
COSMOS 2534 (758)       
1 44299U 19030A   22307.68708748 -.00000035  00000+0  00000+0 0  9990
2 44299  64.4184 237.2991 0013155 285.8876 161.8852  2.13101875 26770
COSMOS 2544 (759)       
1 44850U 19088A   22308.06318808  .00000094  00000+0  16595+1 0  9994
2 44850  64.9876 118.0065 0010565 250.3828 111.3611  2.13102305 22554
COSMOS 2545 (760)       
1 45358U 20018A   22307.70880394 -.00000068  00000+0  00000+0 0  9992
2 45358  64.9058 358.4812 0010900 242.0602  57.1190  2.13102734 20497
COSMOS 2547 (705K)      
1 46805U 20075A   22308.11507984 -.00000037  00000+0  00000+0 0  9996
2 46805  64.6439 236.7503 0007754 246.9805 217.3034  2.13102985 15759
COSMOS 2557 (706K)      
1 52984U 22075A   22307.81498831 -.00000071  00000+0  10000-3 0  9992
2 52984  64.8102   0.6720 0012717 276.4643 195.1398  2.13101965  2541
